MR-2                    
1 67556U 26015A   26050.14597377  .00000064  00000+0  78367-4 0  9993
2 67556  88.9962 280.5484 0005019  71.6792 288.4906 13.52686678  3755
MR-1                    
1 67557U 26015B   26050.14647918  .00000069  00000+0  85617-4 0  9992
2 67557  88.9962 280.5485 0005090  70.4541 289.7160 13.52661832  3756
ELECTRON R/B            
1 67558U 26015C   26050.14378597  .05309743 -15058-5  12139-2 0  9996
2 67558  88.9602 279.6482 0241770 165.5926 195.2417 15.85203468  4206
ELECTRON KICK STAGE R/B 
1 67559U 26015D   26050.17765013  .00044694 -17122-6  74781-3 0  9996
2 67559  89.0491 280.1000 0527046 237.9516 116.9487 14.68628888  4079
STARLINK-36426          
1 67560U 26014AA  26050.12076075  .00331933  00000+0  21323-2 0  9992
2 67560  97.2833 294.1888 0002786  66.7396 293.4162 15.75282314  5648
STARLINK-36621          
1 67561U 26016A   26050.11309477  .00119649  00000+0  79047-3 0  9994
2 67561  97.2824 109.6004 0002166 111.8966 248.2530 15.75229183  3871
STARLINK-36398          
1 67562U 26016B   26050.05697166  .00331796  00000+0  21243-2 0  9996
2 67562  97.2824 109.5218 0001328 124.9993 235.1397 15.75360702  3860
STARLINK-36403          
1 67563U 26016C   26050.08032586  .00152945  00000+0  78269-3 0  9997
2 67563  97.2835 109.6463 0001875 123.8387 236.3060 15.80888321  3877
STARLINK-36593          
1 67564U 26016D   26050.16668981 -.02018046  00000+0 -14104-1 0  9994
2 67564  97.2839 109.7388 0002071  65.0537  68.4442 15.77566879  5015
STARLINK-35725          
1 67565U 26016E   26050.10074432  .00289905  00000+0  18687-2 0  9992
2 67565  97.2829 109.6173 0001101 123.8107 236.3263 15.75321000  3877
STARLINK-36394          
1 67566U 26016F   26050.10251221  .00284951  00000+0  18395-2 0  9998
2 67566  97.2837 109.6116 0000889 109.6821 250.4540 15.75299305  3878
STARLINK-36352          
1 67567U 26016G   26050.13874151  .00244282  00000+0  12346-2 0  9998
2 67567  97.2831 109.7160 0001808 102.4210 257.7261 15.80924326  3883
